SKYNET 4C               
1 20776U 90079A   17343.72846842  .00000115  00000-0  00000-0 0  9993
2 20776  13.8940  14.3677 0003404 257.3280 102.6235  1.00273516 99748
